start=new Date('2022-01-17T00:00:00.000Z').valueOf();
sats=[{"INCLINATION":"53.0531","TLE_LINE1":"1 44950U 20001AN  22016.93093390  .00001805  00000-0  13998-3 0  9999","FILE":"3274981","SITE":"AFETR","EPHEMERIS_TYPE":"0","OBJECT_TYPE":"PAYLOAD","MEAN_ANOMALY":"287.6828","COUNTRY_CODE":"US","ELEMENT_SET_NO":"999","PERIAPSIS":"545.992","TIME_SYSTEM":"UTC","ARG_OF_PERICENTER":"72.4347","REV_AT_EPOCH":"11211","NORAD_CAT_ID":"44950","EPOCH":"2022-01-16T22:20:32.688960","MEAN_MOTION_DDOT":"0.0000000000000","MEAN_MOTION_DOT":"0.00001805","CENTER_NAME":"EARTH","GP_ID":"193994465","OBJECT_NAME":"STARLINK-1125","CLASSIFICATION_TYPE":"U","BSTAR":"0.00013998000000","ECCENTRICITY":"0.00017070","OBJECT_ID":"2020-001AN","PERIOD":"95.591","SEMIMAJOR_AXIS":"6925.309","MEAN_MOTION":"15.06412821","LAUNCH_DATE":"2020-01-07","REF_FRAME":"TEME","RA_OF_ASC_NODE":"277.6582","MEAN_ELEMENT_THEORY":"SGP4","DECAY_DATE":null,"TLE_LINE2":"2 44950  53.0531 277.6582 0001707  72.4347 287.6828 15.06412821112117","APOAPSIS":"548.356","RCS_SIZE":"LARGE"},{"ARG_OF_PERICENTER":"81.9790","TIME_SYSTEM":"UTC","PERIAPSIS":"536.289","ELEMENT_SET_NO":"999","OBJECT_TYPE":"PAYLOAD","MEAN_ANOMALY":"278.1535","COUNTRY_CODE":"US","FILE":"3274671","EPHEMERIS_TYPE":"0","SITE":"AFETR","TLE_LINE1":"1 44951U 20001AP  22016.41706749  .00015127  00000-0  95429-3 0  9993","INCLINATION":"53.0034","RCS_SIZE":"LARGE","APOAPSIS":"540.385","TLE_LINE2":"2 44951  53.0034 274.9256 0002961  81.9790 278.1535 15.09300800113379","DECAY_DATE":null,"RA_OF_ASC_NODE":"274.9256","MEAN_ELEMENT_THEORY":"SGP4","REF_FRAME":"TEME","LAUNCH_DATE":"2020-01-07","BSTAR":"0.00095429000000","ECCENTRICITY":"0.00029610","OBJECT_ID":"2020-001AP","SEMIMAJOR_AXIS":"6916.472","PERIOD":"95.408","MEAN_MOTION":"15.09300800","CLASSIFICATION_TYPE":"U","GP_ID":"193982265","OBJECT_NAME":"STARLINK-1126","CENTER_NAME":"EARTH","MEAN_MOTION_DOT":"0.00015127","MEAN_MOTION_DDOT":"0.0000000000000","EPOCH":"2022-01-16T10:00:34.631136","NORAD_CAT_ID":"44951","REV_AT_EPOCH":"11337"},{"CLASSIFICATION_TYPE":"U","BSTAR":"-0.00001983500000","ECCENTRICITY":"0.00021820","OBJECT_ID":"2020-001AQ","PERIOD":"95.592","SEMIMAJOR_AXIS":"6925.359","MEAN_MOTION":"15.06396555","CENTER_NAME":"EARTH","GP_ID":"193994556","OBJECT_NAME":"STARLINK-1117","EPOCH":"2022-01-16T23:08:19.594752","MEAN_MOTION_DOT":"-0.00000577","MEAN_MOTION_DDOT":"0.0000000000000","REV_AT_EPOCH":"11212","NORAD_CAT_ID":"44952","RCS_SIZE":"LARGE","DECAY_DATE":null,"APOAPSIS":"548.735","TLE_LINE2":"2 44952  53.0545 277.5090 0002182  66.0379 294.0838 15.06396555112128","RA_OF_ASC_NODE":"277.5090","MEAN_ELEMENT_THEORY":"SGP4","LAUNCH_DATE":"2020-01-07","REF_FRAME":"TEME","OBJECT_TYPE":"PAYLOAD","MEAN_ANOMALY":"294.0838","COUNTRY_CODE":"US","EPHEMERIS_TYPE":"0","FILE":"3274983","SITE":"AFETR","INCLINATION":"53.0545","TLE_LINE1":"1 44952U 20001AQ  22016.96411568 -.00000577  00000-0 -19835-4 0  9999","ARG_OF_PERICENTER":"66.0379","ELEMENT_SET_NO":"999","TIME_SYSTEM":"UTC","PERIAPSIS":"545.713"},{"LAUNCH_DATE":"2020-01-07","REF_FRAME":"TEME","MEAN_ELEMENT_THEORY":"SGP4","RA_OF_ASC_NODE":"278.0283","DECAY_DATE":null,"TLE_LINE2":"2 44953  53.0506 278.0283 0001701  72.6800 287.4375 15.06407875113394","APOAPSIS":"548.367","RCS_SIZE":"LARGE","REV_AT_EPOCH":"11339","NORAD_CAT_ID":"44953","EPOCH":"2022-01-16T20:22:24.891744","MEAN_MOTION_DOT":"0.00001142","MEAN_MOTION_DDOT":"0.0000000000000","CENTER_NAME":"EARTH","OBJECT_NAME":"STARLINK-1124","GP_ID":"193994477","CLASSIFICATION_TYPE":"U","MEAN_MOTION":"15.06407875","PERIOD":"95.592","SEMIMAJOR_AXIS":"6925.324","BSTAR":"0.00009556300000","OBJECT_ID":"2020-001AR","ECCENTRICITY":"0.00017010","ELEMENT_SET_NO":"999","PERIAPSIS":"546.011","TIME_SYSTEM":"UTC","ARG_OF_PERICENTER":"72.6800","INCLINATION":"53.0506","TLE_LINE1":"1 44953U 20001AR  22016.84889921  .00001142  00000-0  95563-4 0  9998","EPHEMERIS_TYPE":"0","FILE":"3274981","SITE":"AFETR","COUNTRY_CODE":"US","OBJECT_TYPE":"PAYLOAD","MEAN_ANOMALY":"287.4375"},{"FILE":"3274967","SITE":"AFETR","EPHEMERIS_TYPE":"0","OBJECT_TYPE":"PAYLOAD","MEAN_ANOMALY":"288.4633","COUNTRY_CODE":"US","TLE_LINE1":"1 44954U 20001AS  22016.92910108  .00002416  00000-0  18101-3 0  9997","INCLINATION":"53.0524","ARG_OF_PERICENTER":"71.6602","PERIAPSIS":"545.618","TIME_SYSTEM":"UTC","ELEMENT_SET_NO":"999","GP_ID":"193994287","OBJECT_NAME":"STARLINK-1066","CENTER_NAME":"EARTH","BSTAR":"0.00018101000000","ECCENTRICITY":"0.00022650","OBJECT_ID":"2020-001AS","SEMIMAJOR_AXIS":"6925.322","PERIOD":"95.592","MEAN_MOTION":"15.06408701","CLASSIFICATION_TYPE":"U","NORAD_CAT_ID":"44954","REV_AT_EPOCH":"11234","MEAN_MOTION_DOT":"0.00002416","MEAN_MOTION_DDOT":"0.0000000000000","EPOCH":"2022-01-16T22:17:54.333312","APOAPSIS":"548.755","TLE_LINE2":"2 44954  53.0524 257.6616 0002265  71.6602 288.4633 15.06408701112344","DECAY_DATE":null,"RCS_SIZE":"LARGE","REF_FRAME":"TEME","LAUNCH_DATE":"2020-01-07","RA_OF_ASC_NODE":"257.6616","MEAN_ELEMENT_THEORY":"SGP4"},{"PERIAPSIS":"545.681","TIME_SYSTEM":"UTC","ELEMENT_SET_NO":"999","ARG_OF_PERICENTER":"68.3130","TLE_LINE1":"1 44955U 20001AT  22016.93647395 -.00000502  00000-0 -14769-4 0  9997","INCLINATION":"53.0551","COUNTRY_CODE":"US","MEAN_ANOMALY":"291.8092","OBJECT_TYPE":"PAYLOAD","EPHEMERIS_TYPE":"0","FILE":"3274968","SITE":"AFETR","MEAN_ELEMENT_THEORY":"SGP4","RA_OF_ASC_NODE":"257.6462","REF_FRAME":"TEME","LAUNCH_DATE":"2020-01-07","RCS_SIZE":"LARGE","TLE_LINE2":"2 44955  53.0551 257.6462 0002187  68.3130 291.8092 15.06405977112345","APOAPSIS":"548.710","DECAY_DATE":null,"MEAN_MOTION_DDOT":"0.0000000000000","MEAN_MOTION_DOT":"-0.00000502","EPOCH":"2022-01-16T22:28:31.349280","NORAD_CAT_ID":"44955","REV_AT_EPOCH":"11234","SEMIMAJOR_AXIS":"6925.330","PERIOD":"95.592","MEAN_MOTION":"15.06405977","ECCENTRICITY":"0.00021870","BSTAR":"-0.00001476900000","OBJECT_ID":"2020-001AT","CLASSIFICATION_TYPE":"U","OBJECT_NAME":"STARLINK-1069","GP_ID":"193994295","CENTER_NAME":"EARTH"},{"EPHEMERIS_TYPE":"0","FILE":"3274671","SITE":"AFETR","COUNTRY_CODE":"US","MEAN_ANOMALY":"291.3058","OBJECT_TYPE":"PAYLOAD","INCLINATION":"53.0539","TLE_LINE1":"1 44956U 20001AU  22016.40201457  .00002933  00000-0  21565-3 0  9994","ARG_OF_PERICENTER":"68.8163","ELEMENT_SET_NO":"999","PERIAPSIS":"545.667","TIME_SYSTEM":"UTC","CENTER_NAME":"EARTH","OBJECT_NAME":"STARLINK-1070","GP_ID":"193983015","CLASSIFICATION_TYPE":"U","PERIOD":"95.591","SEMIMAJOR_AXIS":"6925.311","MEAN_MOTION":"15.06412365","ECCENTRICITY":"0.00021790","BSTAR":"0.00021565000000","OBJECT_ID":"2020-001AU","NORAD_CAT_ID":"44956","REV_AT_EPOCH":"11232","EPOCH":"2022-01-16T09:38:54.058848","MEAN_MOTION_DDOT":"0.0000000000000","MEAN_MOTION_DOT":"0.00002933","DECAY_DATE":null,"TLE_LINE2":"2 44956  53.0539 260.0397 0002179  68.8163 291.3058 15.06412365112323","APOAPSIS":"548.685","RCS_SIZE":"LARGE","LAUNCH_DATE":"2020-01-07","REF_FRAME":"TEME","MEAN_ELEMENT_THEORY":"SGP4","RA_OF_ASC_NODE":"260.0397"},{"PERIAPSIS":"545.729","TIME_SYSTEM":"UTC","ELEMENT_SET_NO":"999","ARG_OF_PERICENTER":"67.2514","TLE_LINE1":"1 44957U 20001AV  22016.36146928  .00001427  00000-0  11468-3 0  9999","INCLINATION":"53.0547","OBJECT_TYPE":"PAYLOAD","MEAN_ANOMALY":"292.8700","COUNTRY_CODE":"US","FILE":"3274671","SITE":"AFETR","EPHEMERIS_TYPE":"0","RA_OF_ASC_NODE":"260.2239","MEAN_ELEMENT_THEORY":"SGP4","REF_FRAME":"TEME","LAUNCH_DATE":"2020-01-07","RCS_SIZE":"LARGE","APOAPSIS":"548.681","TLE_LINE2":"2 44957  53.0547 260.2239 0002131  67.2514 292.8700 15.06402809112312","DECAY_DATE":null,"MEAN_MOTION_DOT":"0.00001427","MEAN_MOTION_DDOT":"0.0000000000000","EPOCH":"2022-01-16T08:40:30.945792","REV_AT_EPOCH":"11231","NORAD_CAT_ID":"44957","BSTAR":"0.00011468000000","OBJECT_ID":"2020-001AV","ECCENTRICITY":"0.00021310","PERIOD":"95.592","SEMIMAJOR_AXIS":"6925.340","MEAN_MOTION":"15.06402809","CLASSIFICATION_TYPE":"U","GP_ID":"193983267","OBJECT_NAME":"STARLINK-1074","CENTER_NAME":"EARTH"},{"ARG_OF_PERICENTER":"67.7087","ELEMENT_SET_NO":"999","TIME_SYSTEM":"UTC","PERIAPSIS":"545.531","COUNTRY_CODE":"US","MEAN_ANOMALY":"292.4152","OBJECT_TYPE":"PAYLOAD","SITE":"AFETR","FILE":"3274671","EPHEMERIS_TYPE":"0","INCLINATION":"53.0534","TLE_LINE1":"1 44959U 20001AX  22016.37621017  .00002160  00000-0  16381-3 0  9993","RCS_SIZE":"LARGE","DECAY_DATE":null,"APOAPSIS":"548.794","TLE_LINE2":"2 44959  53.0534 260.1555 0002356  67.7087 292.4152 15.06416729112312","MEAN_ELEMENT_THEORY":"SGP4","RA_OF_ASC_NODE":"260.1555","LAUNCH_DATE":"2020-01-07","REF_FRAME":"TEME","CLASSIFICATION_TYPE":"U","SEMIMAJOR_AXIS":"6925.297","PERIOD":"95.591","MEAN_MOTION":"15.06416729","BSTAR":"0.00016381000000","OBJECT_ID":"2020-001AX","ECCENTRICITY":"0.00023560","CENTER_NAME":"EARTH","OBJECT_NAME":"STARLINK-1076","GP_ID":"193984014","EPOCH":"2022-01-16T09:01:44.558688","MEAN_MOTION_DOT":"0.00002160","MEAN_MOTION_DDOT":"0.0000000000000","REV_AT_EPOCH":"11231","NORAD_CAT_ID":"44959"},{"EPOCH":"2022-01-16T20:21:08.180640","MEAN_MOTION_DOT":"0.00001890","MEAN_MOTION_DDOT":"0.0000000000000","NORAD_CAT_ID":"44961","REV_AT_EPOCH":"11239","CLASSIFICATION_TYPE":"U","SEMIMAJOR_AXIS":"6925.331","PERIOD":"95.592","MEAN_MOTION":"15.06405612","ECCENTRICITY":"0.00024170","BSTAR":"0.00014575000000","OBJECT_ID":"2020-001AZ","CENTER_NAME":"EARTH","OBJECT_NAME":"STARLINK-1080","GP_ID":"193994194","MEAN_ELEMENT_THEORY":"SGP4","RA_OF_ASC_NODE":"258.0346","LAUNCH_DATE":"2020-01-07","REF_FRAME":"TEME","RCS_SIZE":"LARGE","DECAY_DATE":null,"APOAPSIS":"548.870","TLE_LINE2":"2 44961  53.0548 258.0346 0002417  68.6968 291.4279 15.06405612112396","INCLINATION":"53.0548","TLE_LINE1":"1 44961U 20001AZ  22016.84801135  .00001890  00000-0  14575-3 0  9991","COUNTRY_CODE":"US","MEAN_ANOMALY":"291.4279","OBJECT_TYPE":"PAYLOAD","EPHEMERIS_TYPE":"0","FILE":"3274974","SITE":"AFETR","ELEMENT_SET_NO":"999","TIME_SYSTEM":"UTC","PERIAPSIS":"545.523","ARG_OF_PERICENTER":"68.6968"}];
